OBJECT_NAME,OBJECT_ID,EPOCH,MEAN_MOTION,ECCENTRICITY,INCLINATION,RA_OF_ASC_NODE,ARG_OF_PERICENTER,MEAN_ANOMALY,EPHEMERIS_TYPE,CLASSIFICATION_TYPE,NORAD_CAT_ID,ELEMENT_SET_NO,REV_AT_EPOCH,BSTAR,MEAN_MOTION_DOT,MEAN_MOTION_DDOT
POLYITAN-1,2014-033AJ,2026-07-08T15:34:10.081056,15.34052541,.00083671,98.0942,217.9511,82.8597,277.3594,0,U,40042,999,65688,.42853414E-3,.14055E-3,0
TIGRISAT,2014-033AK,2026-07-08T21:02:55.678848,14.85237320,.00491927,97.7856,339.3953,5.1691,355.0022,0,U,40043,999,64884,.14087099E-3,.1179E-4,0
AEROCUBE 6A,2014-033AM,2026-07-08T17:30:43.478496,14.98301671,.00370382,97.7236,356.4531,303.1864,56.5808,0,U,40045,999,64984,.27852188E-3,.3299E-4,0
AEROCUBE 6B,2014-033AN,2026-07-07T17:02:44.600352,14.99755397,.00378479,97.7215,355.2788,296.6954,63.0396,0,U,40046,999,64983,.24186486E-3,.2971E-4,0
CANX-4,2014-034C,2026-07-08T21:40:09.050592,14.81303993,.00116477,98.3094,66.0105,305.2777,54.7345,0,U,40055,999,64774,.88055036E-4,.63E-5,0
CANX-5,2014-034D,2026-07-08T21:37:31.778400,14.81321342,.00116414,98.3096,66.0535,305.5159,54.4966,0,U,40056,999,63855,.88166169E-4,.631E-5,0
UKUBE-1,2014-037F,2026-07-08T23:34:37.945632,15.13887025,.00032733,98.4245,195.5495,99.1613,260.9986,0,U,40074,999,65185,.26984496E-3,.4805E-4,0
BRITE-PL2 (HEWELIUSZ),2014-049B,2026-07-08T20:43:08.528160,14.94673311,.00147936,97.9115,302.0330,42.6299,317.6066,0,U,40119,999,64468,.15840808E-3,.1661E-4,0
AEROCUBE 5C,2015-058B,2026-07-08T15:03:02.070720,14.91549938,.01318954,64.7654,195.8861,54.9385,306.4014,0,U,40965,999,36885,.18326794E-3,.1996E-4,0
AEROCUBE 7,2015-058C,2026-07-08T16:41:42.429408,14.95872823,.01215979,64.7606,177.4388,53.2521,307.9684,0,U,40966,999,36917,.260715E-3,.3209E-4,0
FOX-1A (AO-85),2015-058D,2026-07-08T08:18:40.529088,14.91062267,.01318339,64.7733,213.2226,48.4039,312.8281,0,U,40967,999,11672,.15149463E-3,.1594E-4,0
SINOD-D 1,2015-058E,2026-07-08T11:17:29.360544,14.96046656,.01205081,64.7734,192.2541,44.7381,316.3376,0,U,40968,999,11984,.25217828E-3,.3105E-4,0
SNAP-3 ALICE,2015-058G,2026-07-08T20:47:14.874432,15.65911681,.00235849,64.7497,28.6821,353.0968,6.9852,0,U,40970,999,12027,.11419475E-2,.120206E-2,0
LMRST-SAT,2015-058H,2026-07-08T18:38:22.617024,14.90680325,.01334247,64.7740,208.2640,50.2506,311.0270,0,U,40971,999,11677,.16170865E-3,.1703E-4,0
SNAP-3 EDDIE,2015-058J,2026-07-08T21:40:09.279552,15.67200263,.00245332,64.7405,19.1153,355.9394,4.1552,0,U,40972,999,12242,.10375246E-2,.115112E-2,0
PROPCUBE 3,2015-058K,2026-07-08T00:32:59.843904,14.94377515,.01252338,64.7669,187.4306,51.7463,309.4841,0,U,40973,999,11791,.19686281E-3,.2298E-4,0
BISONSAT,2015-058L,2026-07-08T22:15:29.451744,15.16811443,.00814319,64.7579,103.3230,38.5439,322.1461,0,U,40974,999,11891,.49561438E-3,.1046E-3,0
SNAP-3 JIMI,2015-058M,2026-07-08T22:56:05.678592,15.02549103,.01073014,64.7634,150.8853,46.7367,314.2642,0,U,40975,999,11749,.32124937E-3,.4667E-4,0
PROPCUBE 1 (FLORA),2015-058N,2026-07-08T13:11:55.906368,14.89308548,.01320121,64.7731,229.0228,52.6256,308.6791,0,U,40976,999,11944,.13407992E-3,.1322E-4,0
SINOD-D 3,2015-058P,2026-07-08T07:48:55.994112,14.94138888,.01205514,64.7708,209.8037,49.7948,311.3641,0,U,40977,999,11791,.18159159E-3,.2066E-4,0
RAVAN,2016-067B,2026-07-08T15:43:18.657984,15.56937795,.00015969,97.9854,81.7396,264.6059,95.5012,0,U,41849,999,53103,.61513402E-3,.44355E-3,0
CELTEE 1,2016-067C,2026-07-08T14:31:24.708576,15.19898372,.00020974,98.0651,57.6329,118.4249,241.7196,0,U,41850,999,52913,.15879697E-3,.3332E-4,0
OPTICUBE 04,2016-067D,2026-07-08T08:31:00.726528,15.09751902,.00166177,98.0684,42.7419,49.7646,310.5032,0,U,41851,999,52836,.96030506E-4,.1482E-4,0
AEROCUBE 8D,2016-067E,2026-07-08T14:50:07.137888,15.24707647,.00048788,98.0658,61.4206,72.9126,287.2644,0,U,41852,999,52933,.20032197E-3,.4874E-4,0
AEROCUBE 8C,2016-067F,2026-07-07T01:33:16.500384,15.24945674,.00051099,98.0530,56.9510,10.9574,349.1772,0,U,41853,999,52909,.23555499E-3,.5788E-4,0
CORVUS BC2,2017-042X,2026-07-08T21:59:43.145376,15.06435714,.00139194,97.4091,350.4254,43.2717,316.9601,0,U,42846,999,49033,.15416919E-3,.2218E-4,0
CORVUS BC1,2017-042Y,2026-07-08T21:48:29.831040,15.06600810,.00122543,97.4123,351.2462,22.1714,338.0041,0,U,42847,999,49036,.13199073E-3,.1898E-4,0
MAKERSAT 0,2017-073D,2026-07-08T17:28:33.025728,15.32839065,.01050669,97.4597,72.4218,195.3224,164.4830,0,U,43016,999,46976,.36375063E-3,.13683E-3,0
SIRION PATHFINDER-2,2018-099B,2026-07-08T15:39:47.495520,15.14744359,.00078114,97.4246,238.2007,215.4457,144.6257,0,U,43759,999,41587,.16123389E-3,.2925E-4,0
CORVUS BC4,2018-099K,2026-07-08T16:31:20.490240,15.12668563,.00065196,97.4057,232.0397,289.4276,70.6250,0,U,43767,999,41565,.14298873E-3,.2438E-4,0
